[{"OBJECT_NAME":"STARLINK-36719","OBJECT_ID":"2026-022A","EPOCH":"2026-03-03T21:09:35.896608","MEAN_MOTION":15.75347011,"ECCENTRICITY":0.00015679,"INCLINATION":97.2825,"RA_OF_ASC_NODE":96.5562,"ARG_OF_PERICENTER":71.3125,"MEAN_ANOMALY":288.8311,"EPHEMERIS_TYPE":0,"CLASSIFICATION_TYPE":"U","NORAD_CAT_ID":67648,"ELEMENT_SET_NO":999,"REV_AT_EPOCH":463,"BSTAR":0.002133112,"MEAN_MOTION_DOT":0.00333017,"MEAN_MOTION_DDOT":0},{"OBJECT_NAME":"STARLINK-36342","OBJECT_ID":"2026-022B","EPOCH":"2026-03-03T21:08:34.964736","MEAN_MOTION":15.75333548,"ECCENTRICITY":0.00013118,"INCLINATION":97.283,"RA_OF_ASC_NODE":96.5589,"ARG_OF_PERICENTER":67.976,"MEAN_ANOMALY":292.1645,"EPHEMERIS_TYPE":0,"CLASSIFICATION_TYPE":"U","NORAD_CAT_ID":67649,"ELEMENT_SET_NO":999,"REV_AT_EPOCH":463,"BSTAR":0.0021317233,"MEAN_MOTION_DOT":0.00332592,"MEAN_MOTION_DDOT":0},{"OBJECT_NAME":"STARLINK-36703","OBJECT_ID":"2026-022C","EPOCH":"2026-03-03T21:07:04.327680","MEAN_MOTION":15.7529126,"ECCENTRICITY":0.00030695,"INCLINATION":97.283,"RA_OF_ASC_NODE":96.5586,"ARG_OF_PERICENTER":64.4641,"MEAN_ANOMALY":295.6942,"EPHEMERIS_TYPE":0,"CLASSIFICATION_TYPE":"U","NORAD_CAT_ID":67650,"ELEMENT_SET_NO":999,"REV_AT_EPOCH":463,"BSTAR":0.0019839584,"MEAN_MOTION_DOT":0.00308084,"MEAN_MOTION_DDOT":0},{"OBJECT_NAME":"STARLINK-36696","OBJECT_ID":"2026-022D","EPOCH":"2026-03-03T21:04:31.400544","MEAN_MOTION":15.75304106,"ECCENTRICITY":0.00022219,"INCLINATION":97.2818,"RA_OF_ASC_NODE":96.5619,"ARG_OF_PERICENTER":74.7259,"MEAN_ANOMALY":285.4252,"EPHEMERIS_TYPE":0,"CLASSIFICATION_TYPE":"U","NORAD_CAT_ID":67651,"ELEMENT_SET_NO":999,"REV_AT_EPOCH":463,"BSTAR":0.00202022,"MEAN_MOTION_DOT":0.00314098,"MEAN_MOTION_DDOT":0},{"OBJECT_NAME":"STARLINK-36699","OBJECT_ID":"2026-022E","EPOCH":"2026-03-03T21:03:30.034944","MEAN_MOTION":15.75312289,"ECCENTRICITY":0.00012098,"INCLINATION":97.2833,"RA_OF_ASC_NODE":96.5636,"ARG_OF_PERICENTER":105.9937,"MEAN_ANOMALY":254.1462,"EPHEMERIS_TYPE":0,"CLASSIFICATION_TYPE":"U","NORAD_CAT_ID":67652,"ELEMENT_SET_NO":999,"REV_AT_EPOCH":463,"BSTAR":0.0016000894,"MEAN_MOTION_DOT":0.00246864,"MEAN_MOTION_DDOT":0},{"OBJECT_NAME":"STARLINK-36694","OBJECT_ID":"2026-022F","EPOCH":"2026-03-03T22:31:55.804512","MEAN_MOTION":15.75334439,"ECCENTRICITY":0.00020391,"INCLINATION":97.2824,"RA_OF_ASC_NODE":96.6367,"ARG_OF_PERICENTER":48.3639,"MEAN_ANOMALY":311.7801,"EPHEMERIS_TYPE":0,"CLASSIFICATION_TYPE":"U","NORAD_CAT_ID":67653,"ELEMENT_SET_NO":999,"REV_AT_EPOCH":464,"BSTAR":0.0018488292,"MEAN_MOTION_DOT":0.00286891,"MEAN_MOTION_DDOT":0},{"OBJECT_NAME":"STARLINK-36620","OBJECT_ID":"2026-022G","EPOCH":"2026-03-03T14:00:03.000384","MEAN_MOTION":15.75200096,"ECCENTRICITY":0.0001312,"INCLINATION":97.284,"RA_OF_ASC_NODE":96.2606,"ARG_OF_PERICENTER":88.8974,"MEAN_ANOMALY":58.7785,"EPHEMERIS_TYPE":0,"CLASSIFICATION_TYPE":"U","NORAD_CAT_ID":67654,"ELEMENT_SET_NO":999,"REV_AT_EPOCH":591,"BSTAR":6.4634e-5,"MEAN_MOTION_DOT":9.526e-5,"MEAN_MOTION_DDOT":0},{"OBJECT_NAME":"STARLINK-36720","OBJECT_ID":"2026-022H","EPOCH":"2026-03-03T20:57:24.456672","MEAN_MOTION":15.75305794,"ECCENTRICITY":0.00015087,"INCLINATION":97.283,"RA_OF_ASC_NODE":96.5677,"ARG_OF_PERICENTER":103.6908,"MEAN_ANOMALY":256.4526,"EPHEMERIS_TYPE":0,"CLASSIFICATION_TYPE":"U","NORAD_CAT_ID":67655,"ELEMENT_SET_NO":999,"REV_AT_EPOCH":463,"BSTAR":0.0023044845,"MEAN_MOTION_DOT":0.00360307,"MEAN_MOTION_DDOT":0},{"OBJECT_NAME":"STARLINK-36688","OBJECT_ID":"2026-022J","EPOCH":"2026-03-03T22:27:51.915456","MEAN_MOTION":15.75272663,"ECCENTRICITY":0.00017954,"INCLINATION":97.2826,"RA_OF_ASC_NODE":96.6346,"ARG_OF_PERICENTER":111.3192,"MEAN_ANOMALY":248.8265,"EPHEMERIS_TYPE":0,"CLASSIFICATION_TYPE":"U","NORAD_CAT_ID":67656,"ELEMENT_SET_NO":999,"REV_AT_EPOCH":464,"BSTAR":0.0012560176,"MEAN_MOTION_DOT":0.00192177,"MEAN_MOTION_DDOT":0},{"OBJECT_NAME":"STARLINK-36706","OBJECT_ID":"2026-022K","EPOCH":"2026-03-03T22:25:49.990368","MEAN_MOTION":15.75284986,"ECCENTRICITY":0.00019554,"INCLINATION":97.2829,"RA_OF_ASC_NODE":96.6368,"ARG_OF_PERICENTER":101.7608,"MEAN_ANOMALY":258.3877,"EPHEMERIS_TYPE":0,"CLASSIFICATION_TYPE":"U","NORAD_CAT_ID":67657,"ELEMENT_SET_NO":999,"REV_AT_EPOCH":464,"BSTAR":0.0014266003,"MEAN_MOTION_DOT":0.00219108,"MEAN_MOTION_DDOT":0},{"OBJECT_NAME":"STARLINK-36701","OBJECT_ID":"2026-022L","EPOCH":"2026-03-03T14:46:55.080192","MEAN_MOTION":15.75195777,"ECCENTRICITY":0.00014,"INCLINATION":97.2837,"RA_OF_ASC_NODE":96.3063,"ARG_OF_PERICENTER":116.3697,"MEAN_ANOMALY":243.7712,"EPHEMERIS_TYPE":0,"CLASSIFICATION_TYPE":"U","NORAD_CAT_ID":67658,"ELEMENT_SET_NO":999,"REV_AT_EPOCH":459,"BSTAR":0.0024082,"MEAN_MOTION_DOT":0.00375426,"MEAN_MOTION_DDOT":0},{"OBJECT_NAME":"STARLINK-36642","OBJECT_ID":"2026-022M","EPOCH":"2026-03-03T22:22:46.868160","MEAN_MOTION":15.75294627,"ECCENTRICITY":0.00014756,"INCLINATION":97.2833,"RA_OF_ASC_NODE":96.6411,"ARG_OF_PERICENTER":93.5919,"MEAN_ANOMALY":266.5515,"EPHEMERIS_TYPE":0,"CLASSIFICATION_TYPE":"U","NORAD_CAT_ID":67659,"ELEMENT_SET_NO":999,"REV_AT_EPOCH":464,"BSTAR":0.0016180834,"MEAN_MOTION_DOT":0.0024953,"MEAN_MOTION_DDOT":0},{"OBJECT_NAME":"STARLINK-36673","OBJECT_ID":"2026-022N","EPOCH":"2026-03-03T22:20:44.855808","MEAN_MOTION":15.75305487,"ECCENTRICITY":0.00018874,"INCLINATION":97.2826,"RA_OF_ASC_NODE":96.6417,"ARG_OF_PERICENTER":111.9853,"MEAN_ANOMALY":248.1613,"EPHEMERIS_TYPE":0,"CLASSIFICATION_TYPE":"U","NORAD_CAT_ID":67660,"ELEMENT_SET_NO":999,"REV_AT_EPOCH":464,"BSTAR":0.0015091478,"MEAN_MOTION_DOT":0.00232361,"MEAN_MOTION_DDOT":0},{"OBJECT_NAME":"STARLINK-36674","OBJECT_ID":"2026-022P","EPOCH":"2026-03-03T22:18:42.890976","MEAN_MOTION":15.75300251,"ECCENTRICITY":0.00020851,"INCLINATION":97.2821,"RA_OF_ASC_NODE":96.6431,"ARG_OF_PERICENTER":118.1169,"MEAN_ANOMALY":242.0307,"EPHEMERIS_TYPE":0,"CLASSIFICATION_TYPE":"U","NORAD_CAT_ID":67661,"ELEMENT_SET_NO":999,"REV_AT_EPOCH":464,"BSTAR":0.001441439,"MEAN_MOTION_DOT":0.00221601,"MEAN_MOTION_DDOT":0},{"OBJECT_NAME":"STARLINK-36700","OBJECT_ID":"2026-022Q","EPOCH":"2026-03-03T22:15:40.097952","MEAN_MOTION":15.75282618,"ECCENTRICITY":0.00017822,"INCLINATION":97.2824,"RA_OF_ASC_NODE":96.6464,"ARG_OF_PERICENTER":109.7452,"MEAN_ANOMALY":250.4006,"EPHEMERIS_TYPE":0,"CLASSIFICATION_TYPE":"U","NORAD_CAT_ID":67662,"ELEMENT_SET_NO":999,"REV_AT_EPOCH":464,"BSTAR":0.0016872992,"MEAN_MOTION_DOT":0.0026041,"MEAN_MOTION_DDOT":0},{"OBJECT_NAME":"STARLINK-36675","OBJECT_ID":"2026-022R","EPOCH":"2026-03-03T22:17:41.895168","MEAN_MOTION":15.75316233,"ECCENTRICITY":0.00021253,"INCLINATION":97.2818,"RA_OF_ASC_NODE":96.6442,"ARG_OF_PERICENTER":111.7965,"MEAN_ANOMALY":248.3527,"EPHEMERIS_TYPE":0,"CLASSIFICATION_TYPE":"U","NORAD_CAT_ID":67663,"ELEMENT_SET_NO":999,"REV_AT_EPOCH":464,"BSTAR":0.0016263255,"MEAN_MOTION_DOT":0.00251086,"MEAN_MOTION_DDOT":0}]
