STARLINK-36719          
1 67648U 26022A   26062.88166547  .00333017  00000+0  21331-2 0  9992
2 67648  97.2825  96.5562 0001567  71.3125 288.8311 15.75347011  4635
STARLINK-36342          
1 67649U 26022B   26062.88096024  .00332592  00000+0  21317-2 0  9996
2 67649  97.2830  96.5589 0001311  67.9760 292.1645 15.75333548  4632
STARLINK-36703          
1 67650U 26022C   26062.87991120  .00308084  00000+0  19840-2 0  9995
2 67650  97.2830  96.5586 0003069  64.4641 295.6942 15.75291260  4635
STARLINK-36696          
1 67651U 26022D   26062.87814121  .00314098  00000+0  20202-2 0  9997
2 67651  97.2818  96.5619 0002221  74.7259 285.4252 15.75304106  4632
STARLINK-36699          
1 67652U 26022E   26062.87743096  .00246864  00000+0  16001-2 0  9997
2 67652  97.2833  96.5636 0001209 105.9937 254.1462 15.75312289  4631
STARLINK-36694          
1 67653U 26022F   26062.93884033  .00286891  00000+0  18488-2 0  9997
2 67653  97.2824  96.6367 0002039  48.3639 311.7801 15.75334439  4644
STARLINK-36620          
1 67654U 26022G   26062.58336806  .00009526  00000+0  64634-4 0  9993
2 67654  97.2840  96.2606 0001312  88.8974  58.7785 15.75200096  5910
STARLINK-36720          
1 67655U 26022H   26062.87319973  .00360307  00000+0  23045-2 0  9998
2 67655  97.2830  96.5677 0001508 103.6908 256.4526 15.75305794  4630
STARLINK-36688          
1 67656U 26022J   26062.93601754  .00192177  00000+0  12560-2 0  9995
2 67656  97.2826  96.6346 0001795 111.3192 248.8265 15.75272663  4643
STARLINK-36706          
1 67657U 26022K   26062.93460637  .00219108  00000+0  14266-2 0  9998
2 67657  97.2829  96.6368 0001955 101.7608 258.3877 15.75284986  4640
STARLINK-36701          
1 67658U 26022L   26062.61591528  .00375426  00000+0  24082-2 0  9991
2 67658  97.2837  96.3063 0001400 116.3697 243.7712 15.75195777  4593
STARLINK-36642          
1 67659U 26022M   26062.93248690  .00249530  00000+0  16181-2 0  9993
2 67659  97.2833  96.6411 0001475  93.5919 266.5515 15.75294627  4649
STARLINK-36673          
1 67660U 26022N   26062.93107472  .00232361  00000+0  15091-2 0  9990
2 67660  97.2826  96.6417 0001887 111.9853 248.1613 15.75305487  4640
STARLINK-36674          
1 67661U 26022P   26062.92966309  .00221601  00000+0  14414-2 0  9995
2 67661  97.2821  96.6431 0002085 118.1169 242.0307 15.75300251  4649
STARLINK-36700          
1 67662U 26022Q   26062.92754743  .00260410  00000+0  16873-2 0  9995
2 67662  97.2824  96.6464 0001782 109.7452 250.4006 15.75282618  4648
STARLINK-36675          
1 67663U 26022R   26062.92895712  .00251086  00000+0  16263-2 0  9990
2 67663  97.2818  96.6442 0002125 111.7965 248.3527 15.75316233  4647
